ONEWEB-0319             
1 49105U 21075AG  26005.13843434  .00000017  00000+0  94267-5 0  9997
2 49105  87.9086  38.2848 0002332  99.8905 260.2489 13.17647495212139
ONEWEB-0323             
1 49106U 21075AH  26005.04573448  .00000277  00000+0  73401-3 0  9996
2 49106  87.8923  23.0433 0002215 105.3793 254.7580 13.12442212213157
ONEWEB-0329             
1 49107U 21075AJ  26005.14689681  .00000012  00000+0 -34517-5 0  9990
2 49107  87.9083  38.2844 0001758  99.0472 261.0858 13.17649407212118
ONEWEB-0330             
1 49108U 21075AK  26005.14773048 -.00000002  00000+0 -37083-4 0  9992
2 49108  87.9086  38.2906 0001581 100.3595 259.7714 13.17648409212157
ONEWEB-0292             
1 49186U 21083A   26004.99314710 -.00000185  00000+0 -54220-3 0  9999
2 49186  87.8974 352.6889 0001886  89.3295 270.8050 13.13469930209500
ONEWEB-0303             
1 49187U 21083B   26005.01779960 -.00000085  00000+0 -24959-3 0  9991
2 49187  87.9174   7.8557 0001872  92.3672 267.7675 13.18685654208474
ONEWEB-0306             
1 49188U 21083C   26005.00791216  .00001076  00000+0  26971-2 0  9993
2 49188  87.9174   7.8419 0001607  83.8766 276.2549 13.18681360208517
ONEWEB-0307             
1 49189U 21083D   26004.98721252 -.00000475  00000+0 -13370-2 0  9996
2 49189  87.8971 352.6809 0001731  86.6550 273.4777 13.13469874209507
